GLOBALSTAR M075         
1 37192U 10054E   25001.95170247 -.00000046  00000+0  32013-3 0  9997
2 37192  51.9967 327.6876 0000537  57.4098 342.2376 12.62271133654851
GLOBALSTAR M073         
1 37193U 10054F   25001.88758312 -.00000029  00000+0  41608-3 0  9996
2 37193  52.0044 241.5758 0000943  63.4244  44.4768 12.62262151656830
GLOBALSTAR M083         
1 37739U 11033A   25001.90966597 -.00000097  00000+0  38436-4 0  9990
2 37739  51.9829 190.4657 0000915  96.3604  52.1359 12.62270257625855
GLOBALSTAR M088         
1 37740U 11033B   25001.72760789 -.00000088  00000+0  89578-4 0  9990
2 37740  51.9734  96.6502 0000707 130.9751  30.2306 12.62266767621378
GLOBALSTAR M091         
1 37741U 11033C   25001.58005560 -.00000075  00000+0  15973-3 0  9997
2 37741  52.0008  60.3585 0000570 160.0969 349.4436 12.62272251622147
GLOBALSTAR M085         
1 37742U 11033D   25001.73009587 -.00000085  00000+0  10501-3 0  9991
2 37742  51.9886  11.0866 0000180 151.7227  20.6431 12.62263439622675
GLOBALSTAR M081         
1 37743U 11033E   25001.75604743 -.00000073  00000+0  17101-3 0  9999
2 37743  51.9978  13.6906 0000083 331.6082 199.5617 12.62274875622826
GLOBALSTAR M089         
1 37744U 11033F   25001.63743978 -.00000073  00000+0  17189-3 0  9997
2 37744  51.9951 328.3131 0000695  39.2805 131.6839 12.62274395623659
